{
  "norad_id": 58771,
  "name": "STARLINK-31135",
  "history": [
    {
      "epoch": "2026-03-28T20:24:38.261376",
      "apogee_km": 475.9065018215488,
      "perigee_km": 474.5576217228099,
      "latitude_deg": 42.97906185972249,
      "longitude_deg": 138.74251264007762,
      "semi_major_axis_km": 6853.369061772179,
      "eccentricity": 9.841e-05,
      "inclination_deg": 53.1607,
      "raan_deg": 282.5836,
      "arg_perigee_deg": 100.3228,
      "mean_anomaly_deg": 259.7884,
      "mean_motion_rev_day": 15.30194309
    }
  ]
}