{"fetched_at":"2026-03-30T06:02:59Z","count":15439,"tles":[{"name":"STARLINK-31135","line1":"1 58771U 24011G   26087.85044284  .00000399  00000+0  25597-4 0  9996","line2":"2 58771  53.1607 282.5836 0000984 100.3228 259.7884 15.30194309123232","category":"Starlink"}]}